ORBCOMM FM19            
1 25415U 98046C   26068.00506439  .00001703  00000+0  58927-3 0  9997
2 25415  44.9959 359.6830 0001815 187.4459 272.3467 14.39270127442340
AMAZONIA 1              
1 47699U 21015A   26068.71182529  .00000308  00000+0  10974-3 0  9995
2 47699  98.4264 142.7385 0003935 123.8493 236.3071 14.40836291264327
